{"type": "FeatureCollection", "features": [ {"type": "Feature", "properties": {"norad_id": 58662, "name": "TIANMU-1 21", "group": "weather", "lat": -40.21385759210017, "lon": -76.53992849639985, "alt_km": 472.8914545859516, "timestamp": "2025-12-22T08:58:19.987298+00:00", "meta": {"OBJECT_NAME": "TIANMU-1 21", "OBJECT_ID": "2023-208C", "EPOCH": "2025-12-22T04:52:35.131296", "MEAN_MOTION": 15.31740732, "ECCENTRICITY": 0.0006296, "INCLINATION": 97.4382, "RA_OF_ASC_NODE": 109.6306, "ARG_OF_PERICENTER": 220.7257, "MEAN_ANOMALY": 139.3514, "EPHEMERIS_TYPE": 0, "CLASSIFICATION_TYPE": "U", "NORAD_CAT_ID": 58662, "ELEMENT_SET_NO": 999, "REV_AT_EPOCH": 11044, "BSTAR": 0.00040838, "MEAN_MOTION_DOT": 0.00012451, "MEAN_MOTION_DDOT": 0}, "tle": {"line1": "1 58662U 23208C   25356.20318439  .00012451  00000+0  40838-3 0  9991", "line2": "2 58662  97.4382 109.6306 0006296 220.7257 139.3514 15.31740732110444"}}, "geometry": {"type": "Point", "coordinates": [-76.53992849639985, -40.21385759210017]}}, {"type": "Feature", "properties": {"norad_id": 58663, "name": "TIANMU-1 22", "group": "weather", "lat": 5.237396526580729, "lon": 106.76136502164267, "alt_km": 486.1261975667585, "timestamp": "2025-12-22T08:58:19.987309+00:00", "meta": {"OBJECT_NAME": "TIANMU-1 22", "OBJECT_ID": "2023-208D", "EPOCH": "2025-12-22T04:13:59.975904", "MEAN_MOTION": 15.27753627, "ECCENTRICITY": 0.0002831, "INCLINATION": 97.4388, "RA_OF_ASC_NODE": 107.2506, "ARG_OF_PERICENTER": 237.2868, "MEAN_ANOMALY": 122.8099, "EPHEMERIS_TYPE": 0, "CLASSIFICATION_TYPE": "U", "NORAD_CAT_ID": 58663, "ELEMENT_SET_NO": 999, "REV_AT_EPOCH": 11027, "BSTAR": 0.00033781, "MEAN_MOTION_DOT": 9.087e-05, "MEAN_MOTION_DDOT": 0}, "tle": {"line1": "1 58663U 23208D   25356.17638861  .00009087  00000+0  33781-3 0  9992", "line2": "2 58663  97.4388 107.2506 0002831 237.2868 122.8099 15.27753627110277"}}, "geometry": {"type": "Point", "coordinates": [106.76136502164267, 5.237396526580729]}}, {"type": "Feature", "properties": {"norad_id": 58700, "name": "TIANMU-1 15", "group": "weather", "lat": 23.50080620353141, "lon": 174.53969770696898, "alt_km": 494.694422315084, "timestamp": "2025-12-22T08:58:19.987320+00:00", "meta": {"OBJECT_NAME": "TIANMU-1 15", "OBJECT_ID": "2024-004A", "EPOCH": "2025-12-22T04:08:33.512640", "MEAN_MOTION": 15.24523862, "ECCENTRICITY": 0.0005994, "INCLINATION": 97.4622, "RA_OF_ASC_NODE": 177.6066, "ARG_OF_PERICENTER": 250.0564, "MEAN_ANOMALY": 110.0028, "EPHEMERIS_TYPE": 0, "CLASSIFICATION_TYPE": "U", "NORAD_CAT_ID": 58700, "ELEMENT_SET_NO": 999, "REV_AT_EPOCH": 10878, "BSTAR": 0.00029042, "MEAN_MOTION_DOT": 7.076e-05, "MEAN_MOTION_DDOT": 0}, "tle": {"line1": "1 58700U 24004A   25356.17261010  .00007076  00000+0  29042-3 0  9998", "line2": "2 58700  97.4622 177.6066 0005994 250.0564 110.0028 15.24523862108788"}}, "geometry": {"type": "Point", "coordinates": [174.53969770696898, 23.50080620353141]}}, {"type": "Feature", "properties": {"norad_id": 58701, "name": "TIANMU-1 16", "group": "weather", "lat": 72.18680067963668, "lon": 21.241645771695577, "alt_km": 487.6805376762213, "timestamp": "2025-12-22T08:58:19.987330+00:00", "meta": {"OBJECT_NAME": "TIANMU-1 16", "OBJECT_ID": "2024-004B", "EPOCH": "2025-12-22T05:21:26.256384", "MEAN_MOTION": 15.24551888, "ECCENTRICITY": 0.0004352, "INCLINATION": 97.4562, "RA_OF_ASC_NODE": 177.0382, "ARG_OF_PERICENTER": 252.8842, "MEAN_ANOMALY": 107.1919, "EPHEMERIS_TYPE": 0, "CLASSIFICATION_TYPE": "U", "NORAD_CAT_ID": 58701, "ELEMENT_SET_NO": 999, "REV_AT_EPOCH": 10879, "BSTAR": 0.00028583, "MEAN_MOTION_DOT": 6.968e-05, "MEAN_MOTION_DDOT": 0}, "tle": {"line1": "1 58701U 24004B   25356.22322056  .00006968  00000+0  28583-3 0  9991", "line2": "2 58701  97.4562 177.0382 0004352 252.8842 107.1919 15.24551888108799"}}, "geometry": {"type": "Point", "coordinates": [21.241645771695577, 72.18680067963668]}}, {"type": "Feature", "properties": {"norad_id": 58702, "name": "TIANMU-1 17", "group": "weather", "lat": -12.214249118881277, "lon": -4.0222497634809, "alt_km": 495.37391414459944, "timestamp": "2025-12-22T08:58:19.987340+00:00", "meta": {"OBJECT_NAME": "TIANMU-1 17", "OBJECT_ID": "2024-004C", "EPOCH": "2025-12-22T04:58:51.880224", "MEAN_MOTION": 15.24595305, "ECCENTRICITY": 0.000352, "INCLINATION": 97.4597, "RA_OF_ASC_NODE": 177.4375, "ARG_OF_PERICENTER": 254.2935, "MEAN_ANOMALY": 105.7914, "EPHEMERIS_TYPE": 0, "CLASSIFICATION_TYPE": "U", "NORAD_CAT_ID": 58702, "ELEMENT_SET_NO": 999, "REV_AT_EPOCH": 10878, "BSTAR": 0.00029783, "MEAN_MOTION_DOT": 7.272e-05, "MEAN_MOTION_DDOT": 0}, "tle": {"line1": "1 58702U 24004C   25356.20754491  .00007272  00000+0  29783-3 0  9994", "line2": "2 58702  97.4597 177.4375 0003520 254.2935 105.7914 15.24595305108789"}}, "geometry": {"type": "Point", "coordinates": [-4.0222497634809, -12.214249118881277]}}, {"type": "Feature", "properties": {"norad_id": 58703, "name": "TIANMU-1 18", "group": "weather", "lat": -74.83369874743947, "lon": -153.28527293738762, "alt_km": 497.7036877196988, "timestamp": "2025-12-22T08:58:19.987350+00:00", "meta": {"OBJECT_NAME": "TIANMU-1 18", "OBJECT_ID": "2024-004D", "EPOCH": "2025-12-22T04:34:58.085184", "MEAN_MOTION": 15.2457922, "ECCENTRICITY": 0.0002883, "INCLINATION": 97.4614, "RA_OF_ASC_NODE": 177.6183, "ARG_OF_PERICENTER": 251.6305, "MEAN_ANOMALY": 108.4619, "EPHEMERIS_TYPE": 0, "CLASSIFICATION_TYPE": "U", "NORAD_CAT_ID": 58703, "ELEMENT_SET_NO": 999, "REV_AT_EPOCH": 10878, "BSTAR": 0.00029666, "MEAN_MOTION_DOT": 7.24e-05, "MEAN_MOTION_DDOT": 0}, "tle": {"line1": "1 58703U 24004D   25356.19095006  .00007240  00000+0  29666-3 0  9998", "line2": "2 58703  97.4614 177.6183 0002883 251.6305 108.4619 15.24579220108782"}}, "geometry": {"type": "Point", "coordinates": [-153.28527293738762, -74.83369874743947]}}, {"type": "Feature", "properties": {"norad_id": 58990, "name": "INSAT-3DS", "group": "weather", "lat": -0.04265506434125285, "lon": -52.12932247189114, "alt_km": 35782.11419051582, "timestamp": "2025-12-22T08:58:19.987361+00:00", "meta": {"OBJECT_NAME": "INSAT-3DS", "OBJECT_ID": "2024-033A", "EPOCH": "2025-12-22T03:17:04.894080", "MEAN_MOTION": 1.002719, "ECCENTRICITY": 0.0001128, "INCLINATION": 0.0552, "RA_OF_ASC_NODE": 101.4195, "ARG_OF_PERICENTER": 172.2443, "MEAN_ANOMALY": 308.6604, "EPHEMERIS_TYPE": 0, "CLASSIFICATION_TYPE": "U", "NORAD_CAT_ID": 58990, "ELEMENT_SET_NO": 999, "REV_AT_EPOCH": 4529, "BSTAR": 0, "MEAN_MOTION_DOT": -1.34e-06, "MEAN_MOTION_DDOT": 0}, "tle": {"line1": "1 58990U 24033A   25356.13686220 -.00000134  00000+0  00000+0 0  9999", "line2": "2 58990   0.0552 101.4195 0001128 172.2443 308.6604  1.00271900 45298"}}, "geometry": {"type": "Point", "coordinates": [-52.12932247189114, -0.04265506434125285]}}, {"type": "Feature", "properties": {"norad_id": 59051, "name": "METEOR-M2 4", "group": "weather", "lat": 17.658707442733913, "lon": 135.91904540130997, "alt_km": 822.2115750573657, "timestamp": "2025-12-22T08:58:19.987405+00:00", "meta": {"OBJECT_NAME": "METEOR-M2 4", "OBJECT_ID": "2024-039A", "EPOCH": "2025-12-22T04:50:10.445856", "MEAN_MOTION": 14.22402624, "ECCENTRICITY": 0.0006545, "INCLINATION": 98.678, "RA_OF_ASC_NODE": 312.9626, "ARG_OF_PERICENTER": 330.3666, "MEAN_ANOMALY": 29.714, "EPHEMERIS_TYPE": 0, "CLASSIFICATION_TYPE": "U", "NORAD_CAT_ID": 59051, "ELEMENT_SET_NO": 999, "REV_AT_EPOCH": 9410, "BSTAR": 2.6535e-05, "MEAN_MOTION_DOT": 1.5e-07, "MEAN_MOTION_DDOT": 0}, "tle": {"line1": "1 59051U 24039A   25356.20150979  .00000015  00000+0  26535-4 0  9992", "line2": "2 59051  98.6780 312.9626 0006545 330.3666  29.7140 14.22402624 94100"}}, "geometry": {"type": "Point", "coordinates": [135.91904540130997, 17.658707442733913]}}, {"type": "Feature", "properties": {"norad_id": 60133, "name": "GOES 19", "group": "weather", "lat": 0.004394423740195984, "lon": 150.56863401640757, "alt_km": 35789.90751203008, "timestamp": "2025-12-22T08:58:19.987422+00:00", "meta": {"OBJECT_NAME": "GOES 19", "OBJECT_ID": "2024-119A", "EPOCH": "2025-12-22T02:32:09.195072", "MEAN_MOTION": 1.00272373, "ECCENTRICITY": 9.44e-05, "INCLINATION": 0.0087, "RA_OF_ASC_NODE": 102.1976, "ARG_OF_PERICENTER": 224.669, "MEAN_ANOMALY": 86.9004, "EPHEMERIS_TYPE": 0, "CLASSIFICATION_TYPE": "U", "NORAD_CAT_ID": 60133, "ELEMENT_SET_NO": 999, "REV_AT_EPOCH": 518, "BSTAR": 0, "MEAN_MOTION_DOT": -2.26e-06, "MEAN_MOTION_DDOT": 0}, "tle": {"line1": "1 60133U 24119A   25356.10566198 -.00000226  00000+0  00000+0 0  9996", "line2": "2 60133   0.0087 102.1976 0000944 224.6690  86.9004  1.00272373  5188"}}, "geometry": {"type": "Point", "coordinates": [150.56863401640757, 0.004394423740195984]}}, {"type": "Feature", "properties": {"norad_id": 65815, "name": "FENGYUN 3H", "group": "weather", "lat": -44.95717538738678, "lon": -55.491725656427036, "alt_km": 832.8270219471451, "timestamp": "2025-12-22T08:58:19.987433+00:00", "meta": {"OBJECT_NAME": "FENGYUN 3H", "OBJECT_ID": "2025-219A", "EPOCH": "2025-12-22T02:25:18.746688", "MEAN_MOTION": 14.19906983, "ECCENTRICITY": 7.63e-05, "INCLINATION": 98.6598, "RA_OF_ASC_NODE": 295.4884, "ARG_OF_PERICENTER": 105.9954, "MEAN_ANOMALY": 254.1307, "EPHEMERIS_TYPE": 0, "CLASSIFICATION_TYPE": "U", "NORAD_CAT_ID": 65815, "ELEMENT_SET_NO": 999, "REV_AT_EPOCH": 1225, "BSTAR": 4.819e-05, "MEAN_MOTION_DOT": 5.9e-07, "MEAN_MOTION_DDOT": 0}, "tle": {"line1": "1 65815U 25219A   25356.10091142  .00000059  00000+0  48190-4 0  9992", "line2": "2 65815  98.6598 295.4884 0000763 105.9954 254.1307 14.19906983 12253"}}, "geometry": {"type": "Point", "coordinates": [-55.491725656427036, -44.95717538738678]}}]}